CCSDS_OMM_VERS = 2.0
CREATION_DATE  = 
ORIGINATOR     = 

OBJECT_NAME    = IDEFIX & ARIANE 42P R/B
OBJECT_ID      = 2002-021B
CENTER_NAME    = EARTH
REF_FRAME      = TEME
TIME_SYSTEM    = UTC
MEAN_ELEMENT_THEORY = SGP/SGP4

EPOCH          = 2026-02-25T09:35:31.253856
MEAN_MOTION    = 14.31016126
ECCENTRICITY   = .0010929
INCLINATION    = 98.5857
RA_OF_ASC_NODE = 355.1539
ARG_OF_PERICENTER = 220.1055
MEAN_ANOMALY   = 139.9322

EPHEMERIS_TYPE = 0
CLASSIFICATION_TYPE = U
NORAD_CAT_ID   = 27422
ELEMENT_SET_NO = 999
REV_AT_EPOCH   = 24226
BSTAR          = .11626E-3
MEAN_MOTION_DOT = .262E-5
MEAN_MOTION_DDOT = 0

CCSDS_OMM_VERS = 2.0
CREATION_DATE  = 
ORIGINATOR     = 

OBJECT_NAME    = AQUA
OBJECT_ID      = 2002-022A
CENTER_NAME    = EARTH
REF_FRAME      = TEME
TIME_SYSTEM    = UTC
MEAN_ELEMENT_THEORY = SGP/SGP4

EPOCH          = 2026-02-25T12:16:29.521920
MEAN_MOTION    = 14.61942415
ECCENTRICITY   = .000088
INCLINATION    = 98.4151
RA_OF_ASC_NODE = 23.6568
ARG_OF_PERICENTER = 49.0455
MEAN_ANOMALY   = 62.2046

EPHEMERIS_TYPE = 0
CLASSIFICATION_TYPE = U
NORAD_CAT_ID   = 27424
ELEMENT_SET_NO = 999
REV_AT_EPOCH   = 26695
BSTAR          = .21521E-3
MEAN_MOTION_DOT = .1028E-4
MEAN_MOTION_DDOT = 0

CCSDS_OMM_VERS = 2.0
CREATION_DATE  = 
ORIGINATOR     = 

OBJECT_NAME    = CZ-4B R/B
OBJECT_ID      = 2002-024C
CENTER_NAME    = EARTH
REF_FRAME      = TEME
TIME_SYSTEM    = UTC
MEAN_ELEMENT_THEORY = SGP/SGP4

EPOCH          = 2026-02-25T02:53:21.741792
MEAN_MOTION    = 14.14545069
ECCENTRICITY   = .00509993
INCLINATION    = 98.8870
RA_OF_ASC_NODE = 109.5888
ARG_OF_PERICENTER = 59.4948
MEAN_ANOMALY   = 320.7455

EPHEMERIS_TYPE = 0
CLASSIFICATION_TYPE = U
NORAD_CAT_ID   = 27432
ELEMENT_SET_NO = 999
REV_AT_EPOCH   = 22746
BSTAR          = .36760813E-4
MEAN_MOTION_DOT = .27E-6
MEAN_MOTION_DDOT = 0

CCSDS_OMM_VERS = 2.0
CREATION_DATE  = 
ORIGINATOR     = 

OBJECT_NAME    = MIDORI II (ADEOS-II)
OBJECT_ID      = 2002-056A
CENTER_NAME    = EARTH
REF_FRAME      = TEME
TIME_SYSTEM    = UTC
MEAN_ELEMENT_THEORY = SGP/SGP4

EPOCH          = 2026-02-25T11:35:15.956448
MEAN_MOTION    = 14.29274294
ECCENTRICITY   = .0001971
INCLINATION    = 98.7746
RA_OF_ASC_NODE = 14.8780
ARG_OF_PERICENTER = 60.0459
MEAN_ANOMALY   = 300.0917

EPHEMERIS_TYPE = 0
CLASSIFICATION_TYPE = U
NORAD_CAT_ID   = 27597
ELEMENT_SET_NO = 999
REV_AT_EPOCH   = 20855
BSTAR          = .11831E-3
MEAN_MOTION_DOT = .256E-5
MEAN_MOTION_DDOT = 0

CCSDS_OMM_VERS = 2.0
CREATION_DATE  = 
ORIGINATOR     = 

OBJECT_NAME    = H-2A R/B
OBJECT_ID      = 2002-056E
CENTER_NAME    = EARTH
REF_FRAME      = TEME
TIME_SYSTEM    = UTC
MEAN_ELEMENT_THEORY = SGP/SGP4

EPOCH          = 2026-02-25T12:06:18.927936
MEAN_MOTION    = 14.33751356
ECCENTRICITY   = .0069735
INCLINATION    = 98.3178
RA_OF_ASC_NODE = 17.3356
ARG_OF_PERICENTER = 197.0027
MEAN_ANOMALY   = 274.7112

EPHEMERIS_TYPE = 0
CLASSIFICATION_TYPE = U
NORAD_CAT_ID   = 27601
ELEMENT_SET_NO = 999
REV_AT_EPOCH   = 21236
BSTAR          = .1098E-3
MEAN_MOTION_DOT = .272E-5
MEAN_MOTION_DDOT = 0

CCSDS_OMM_VERS = 2.0
CREATION_DATE  = 
ORIGINATOR     = 

OBJECT_NAME    = CZ-4B R/B
OBJECT_ID      = 2003-049C
CENTER_NAME    = EARTH
REF_FRAME      = TEME
TIME_SYSTEM    = UTC
MEAN_ELEMENT_THEORY = SGP/SGP4

EPOCH          = 2026-02-25T11:40:45.826464
MEAN_MOTION    = 14.55005887
ECCENTRICITY   = .0046991
INCLINATION    = 98.6866
RA_OF_ASC_NODE = 50.9140
ARG_OF_PERICENTER = 269.0126
MEAN_ANOMALY   = 90.5685

EPHEMERIS_TYPE = 0
CLASSIFICATION_TYPE = U
NORAD_CAT_ID   = 28059
ELEMENT_SET_NO = 999
REV_AT_EPOCH   = 18482
BSTAR          = .10427E-3
MEAN_MOTION_DOT = .403E-5
MEAN_MOTION_DDOT = 0

CCSDS_OMM_VERS = 2.0
CREATION_DATE  = 
ORIGINATOR     = 

OBJECT_NAME    = CZ-2C R/B
OBJECT_ID      = 2004-012C
CENTER_NAME    = EARTH
REF_FRAME      = TEME
TIME_SYSTEM    = UTC
MEAN_ELEMENT_THEORY = SGP/SGP4

EPOCH          = 2026-02-25T03:07:37.771392
MEAN_MOTION    = 15.62913951
ECCENTRICITY   = .00139456
INCLINATION    = 97.7262
RA_OF_ASC_NODE = 120.2468
ARG_OF_PERICENTER = 0.1360
MEAN_ANOMALY   = 359.9899

EPHEMERIS_TYPE = 0
CLASSIFICATION_TYPE = U
NORAD_CAT_ID   = 28222
ELEMENT_SET_NO = 999
REV_AT_EPOCH   = 20231
BSTAR          = .49181645E-3
MEAN_MOTION_DOT = .44691E-3
MEAN_MOTION_DDOT = 0

CCSDS_OMM_VERS = 2.0
CREATION_DATE  = 
ORIGINATOR     = 

OBJECT_NAME    = SL-16 R/B
OBJECT_ID      = 2004-021B
CENTER_NAME    = EARTH
REF_FRAME      = TEME
TIME_SYSTEM    = UTC
MEAN_ELEMENT_THEORY = SGP/SGP4

EPOCH          = 2026-02-25T12:09:30.760992
MEAN_MOTION    = 14.14599270
ECCENTRICITY   = .0003419
INCLINATION    = 70.9989
RA_OF_ASC_NODE = 258.0614
ARG_OF_PERICENTER = 37.1991
MEAN_ANOMALY   = 322.9368

EPHEMERIS_TYPE = 0
CLASSIFICATION_TYPE = U
NORAD_CAT_ID   = 28353
ELEMENT_SET_NO = 999
REV_AT_EPOCH   = 12111
BSTAR          = .67445E-4
MEAN_MOTION_DOT = .82E-6
MEAN_MOTION_DDOT = 0

CCSDS_OMM_VERS = 2.0
CREATION_DATE  = 
ORIGINATOR     = 

OBJECT_NAME    = CZ-4B R/B
OBJECT_ID      = 2004-035C
CENTER_NAME    = EARTH
REF_FRAME      = TEME
TIME_SYSTEM    = UTC
MEAN_ELEMENT_THEORY = SGP/SGP4

EPOCH          = 2026-02-25T01:57:30.473280
MEAN_MOTION    = 15.28803002
ECCENTRICITY   = .00325921
INCLINATION    = 97.3529
RA_OF_ASC_NODE = 90.4769
ARG_OF_PERICENTER = 16.7322
MEAN_ANOMALY   = 343.4985

EPHEMERIS_TYPE = 0
CLASSIFICATION_TYPE = U
NORAD_CAT_ID   = 28415
ELEMENT_SET_NO = 999
REV_AT_EPOCH   = 17798
BSTAR          = .2579931E-3
MEAN_MOTION_DOT = .726E-4
MEAN_MOTION_DDOT = 0

CCSDS_OMM_VERS = 2.0
CREATION_DATE  = 
ORIGINATOR     = 

OBJECT_NAME    = CZ-2C R/B
OBJECT_ID      = 2004-046B
CENTER_NAME    = EARTH
REF_FRAME      = TEME
TIME_SYSTEM    = UTC
MEAN_ELEMENT_THEORY = SGP/SGP4

EPOCH          = 2026-02-25T08:31:09.749280
MEAN_MOTION    = 14.26987442
ECCENTRICITY   = .0139131
INCLINATION    = 98.1989
RA_OF_ASC_NODE = 332.1059
ARG_OF_PERICENTER = 190.8801
MEAN_ANOMALY   = 168.9364

EPHEMERIS_TYPE = 0
CLASSIFICATION_TYPE = U
NORAD_CAT_ID   = 28480
ELEMENT_SET_NO = 999
REV_AT_EPOCH   = 10674
BSTAR          = .55921E-4
MEAN_MOTION_DOT = .11E-5
MEAN_MOTION_DDOT = 0

CCSDS_OMM_VERS = 2.0
CREATION_DATE  = 
ORIGINATOR     = 

OBJECT_NAME    = ARIANE 5 R/B
OBJECT_ID      = 2004-049H
CENTER_NAME    = EARTH
REF_FRAME      = TEME
TIME_SYSTEM    = UTC
MEAN_ELEMENT_THEORY = SGP/SGP4

EPOCH          = 2026-02-25T10:32:02.156640
MEAN_MOTION    = 14.85239255
ECCENTRICITY   = .0084806
INCLINATION    = 98.2608
RA_OF_ASC_NODE = 224.4392
ARG_OF_PERICENTER = 31.5506
MEAN_ANOMALY   = 329.0752

EPHEMERIS_TYPE = 0
CLASSIFICATION_TYPE = U
NORAD_CAT_ID   = 28499
ELEMENT_SET_NO = 999
REV_AT_EPOCH   = 14397
BSTAR          = .945E-4
MEAN_MOTION_DOT = .8E-5
MEAN_MOTION_DDOT = 0

CCSDS_OMM_VERS = 2.0
CREATION_DATE  = 
ORIGINATOR     = 

OBJECT_NAME    = CZ-2D R/B
OBJECT_ID      = 2005-024B
CENTER_NAME    = EARTH
REF_FRAME      = TEME
TIME_SYSTEM    = UTC
MEAN_ELEMENT_THEORY = SGP/SGP4

EPOCH          = 2026-02-25T00:06:36.236448
MEAN_MOTION    = 15.58898112
ECCENTRICITY   = .00074655
INCLINATION    = 97.3617
RA_OF_ASC_NODE = 70.6981
ARG_OF_PERICENTER = 76.9454
MEAN_ANOMALY   = 283.2635

EPHEMERIS_TYPE = 0
CLASSIFICATION_TYPE = U
NORAD_CAT_ID   = 28738
ELEMENT_SET_NO = 999
REV_AT_EPOCH   = 13780
BSTAR          = .46964304E-3
MEAN_MOTION_DOT = .36426E-3
MEAN_MOTION_DDOT = 0

