IDEFIX & ARIANE 42P R/B 
1 27422U 02021B   26056.39966729  .00000262  00000+0  11626-3 0  9990
2 27422  98.5857 355.1539 0010929 220.1055 139.9322 14.31016126242268
AQUA                    
1 27424U 02022A   26056.51145280  .00001028  00000+0  21521-3 0  9994
2 27424  98.4151  23.6568 0000880  49.0455  62.2046 14.61942415266957
CZ-4B R/B               
1 27432U 02024C   26056.12039053  .00000027  00000+0  36761-4 0  9993
2 27432  98.8870 109.5888 0050999  59.4948 320.7455 14.14545069227466
MIDORI II (ADEOS-II)    
1 27597U 02056A   26056.48282357  .00000256  00000+0  11831-3 0  9990
2 27597  98.7746  14.8780 0001971  60.0459 300.0917 14.29274294208557
H-2A R/B                
1 27601U 02056E   26056.50438574  .00000272  00000+0  10980-3 0  9995
2 27601  98.3178  17.3356 0069735 197.0027 274.7112 14.33751356212361
CZ-4B R/B               
1 28059U 03049C   26056.48664151  .00000403  00000+0  10427-3 0  9997
2 28059  98.6866  50.9140 0046991 269.0126  90.5685 14.55005887184822
CZ-2C R/B               
1 28222U 04012C   26056.13029828  .00044691  00000+0  49182-3 0  9995
2 28222  97.7262 120.2468 0013945   0.1360 359.9899 15.62913951202318
SL-16 R/B               
1 28353U 04021B   26056.50660603  .00000082  00000+0  67445-4 0  9992
2 28353  70.9989 258.0614 0003419  37.1991 322.9368 14.14599270121119
CZ-4B R/B               
1 28415U 04035C   26056.08160270  .00007260  00000+0  25799-3 0  9994
2 28415  97.3529  90.4769 0032592  16.7322 343.4985 15.28803002177981
CZ-2C R/B               
1 28480U 04046B   26056.35497395  .00000110  00000+0  55921-4 0  9997
2 28480  98.1989 332.1059 0139131 190.8801 168.9364 14.26987442106748
ARIANE 5 R/B            
1 28499U 04049H   26056.43891385  .00000800  00000+0  94500-4 0  9998
2 28499  98.2608 224.4392 0084806  31.5506 329.0752 14.85239255143975
CZ-2D R/B               
1 28738U 05024B   26056.00458607  .00036426  00000+0  46964-3 0  9990
2 28738  97.3617  70.6981 0007465  76.9454 283.2635 15.58898112137807
